NORAD_CAT_ID,OBJECT_NAME,OBJECT_TYPE,EPOCH,MEAN_MOTION,ECCENTRICITY,INCLINATION,RA_OF_ASC_NODE,ARG_OF_PERICENTER,MEAN_ANOMALY,BSTAR,MEAN_MOTION_DOT,MEAN_MOTION_DDOT,TLE_LINE0,TLE_LINE1,TLE_LINE2,SEMIMAJOR_AXIS,PERIOD,APOGEE,PERIGEE,DECAYED
49446.0,STARLINK-3099,PAYLOAD,2024-02-26 01:25:42,15.08850562,0.0001416,53.2185,302.918,96.3046,263.8107,0.00011774,1.587e-05,0.0,0 STARLINK-3099,1 49446U 21104AQ  24057.05951752  .00001587  00000-0  11774-3 0  9991,2 49446  53.2185 302.9180 0001416  96.3046 263.8107 15.08850562127878,6917.848,95.437,540.693,538.734,0.0
49446.0,STARLINK-3099,PAYLOAD,2024-02-26 15:44:11,15.08831363,0.0001395,53.2177,300.2406,73.5035,286.611,2.8006e-05,1.58e-06,0.0,0 STARLINK-3099,1 49446U 21104AQ  24057.65569364  .00000158  00000-0  28006-4 0  9991,2 49446  53.2177 300.2406 0001395  73.5035 286.6110 15.08831363127967,6917.907,95.438,540.737,538.807,0.0
49446.0,STARLINK-3099,PAYLOAD,2024-02-26 22:05:43,15.08836419,0.0001528,53.2187,299.051,112.0359,248.0795,6.2237e-05,7.03e-06,0.0,0 STARLINK-3099,1 49446U 21104AQ  24057.92064773  .00000703  00000-0  62237-4 0  9995,2 49446  53.2187 299.0510 0001528 112.0359 248.0795 15.08836419126939,6917.891,95.438,540.813,538.699,0.0
49446.0,STARLINK-3099,PAYLOAD,2024-02-27 01:16:30,15.08840749,0.0001539,53.2177,298.4566,83.8493,276.2674,0.00010981,1.46e-05,0.0,0 STARLINK-3099,1 49446U 21104AQ  24058.05312678  .00001460  00000-0  10981-3 0  9999,2 49446  53.2177 298.4566 0001539  83.8493 276.2674 15.08840749128020,6917.878,95.438,540.808,538.678,0.0
49446.0,STARLINK-3099,PAYLOAD,2024-02-27 09:13:26,15.08836786,0.0001384,53.2174,296.9698,84.9037,275.2113,6.9552e-05,8.19e-06,0.0,0 STARLINK-3099,1 49446U 21104AQ  24058.38433016  .00000819  00000-0  69552-4 0  9991,2 49446  53.2174 296.9698 0001384  84.9037 275.2113 15.08836786127000,6917.89,95.438,540.713,538.798,0.0
49446.0,STARLINK-3099,PAYLOAD,2024-02-27 21:56:31,15.08838591,0.0001141,53.2159,294.5894,89.8537,270.2586,9.5759e-05,1.236e-05,0.0,0 STARLINK-3099,1 49446U 21104AQ  24058.91424844  .00001236  00000-0  95759-4 0  9991,2 49446  53.2159 294.5894 0001141  89.8537 270.2586 15.08838591127088,6917.885,95.438,540.539,538.96,0.0
49446.0,STARLINK-3099,PAYLOAD,2024-02-28 09:04:13,15.0884161,0.0001291,53.2163,292.5076,92.0336,268.0804,-5.0541e-06,-3.68e-06,0.0,0 STARLINK-3099,1 49446U 21104AQ  24059.37792930 -.00000368  00000-0 -50541-5 0  9994,2 49446  53.2163 292.5076 0001291  92.0336 268.0804 15.08841610128223,6917.875,95.437,540.634,538.847,0.0
49446.0,STARLINK-3099,PAYLOAD,2024-02-28 21:47:18,15.08834945,0.0001366,53.2162,290.1301,89.5966,270.5182,3.8471e-05,3.24e-06,0.0,0 STARLINK-3099,1 49446U 21104AQ  24059.90785515  .00000324  00000-0  38471-4 0  9991,2 49446  53.2162 290.1301 0001366  89.5966 270.5182 15.08834945127230,6917.896,95.438,540.706,538.816,0.0
49446.0,STARLINK-3099,PAYLOAD,2024-02-29 00:58:04,15.0883738,0.0001449,53.2164,289.5343,91.8342,268.2816,4.2694e-05,3.92e-06,0.0,0 STARLINK-3099,1 49446U 21104AQ  24060.04033366  .00000392  00000-0  42694-4 0  9995,2 49446  53.2164 289.5343 0001449  91.8342 268.2816 15.08837380127252,6917.888,95.438,540.756,538.751,0.0
49446.0,STARLINK-3099,PAYLOAD,2024-02-29 20:02:41,15.08844545,0.0001437,53.2163,285.9661,92.0776,268.0381,0.00011907,1.608e-05,0.0,0 STARLINK-3099,1 49446U 21104AQ  24060.83520710  .00001608  00000-0  11907-3 0  9999,2 49446  53.2163 285.9661 0001437  92.0776 268.0381 15.08844545128443,6917.866,95.437,540.726,538.737,0.0
49446.0,STARLINK-3099,PAYLOAD,2024-03-01 00:48:51,15.08817717,0.000165,53.2162,285.0736,98.4177,261.7003,0.00057621,8.889e-05,0.0,0 STARLINK-3099,1 49446U 21104AQ  24061.03393205  .00008889  00000-0  57621-3 0  9990,2 49446  53.2162 285.0736 0001650  98.4177 261.7003 15.08817717128473,6917.949,95.439,540.955,538.672,0.0
49446.0,STARLINK-3099,PAYLOAD,2024-03-01 19:53:29,15.08839762,0.0001434,53.2172,281.5059,89.1735,270.9421,0.00010837,1.437e-05,0.0,0 STARLINK-3099,1 49446U 21104AQ  24061.82881087  .00001437  00000-0  10837-3 0  9997,2 49446  53.2172 281.5059 0001434  89.1735 270.9421 15.08839762128593,6917.881,95.438,540.738,538.754,0.0
49446.0,STARLINK-3099,PAYLOAD,2024-03-01 21:28:52,15.08842728,0.0001359,53.2169,281.208,86.0802,274.0346,9.3031e-05,1.193e-05,0.0,0 STARLINK-3099,1 49446U 21104AQ  24061.89504938  .00001193  00000-0  93031-4 0  9998,2 49446  53.2169 281.2080 0001359  86.0802 274.0346 15.08842728127537,6917.872,95.437,540.677,538.797,0.0
49446.0,STARLINK-3099,PAYLOAD,2024-03-02 21:19:39,15.08837825,0.0001423,53.2169,276.7412,88.7153,271.4002,-1.4381e-06,-3.11e-06,0.0,0 STARLINK-3099,1 49446U 21104AQ  24062.88865383 -.00000311  00000-0 -14381-5 0  9997,2 49446  53.2169 276.7412 0001423  88.7153 271.4002 15.08837825127683,6917.887,95.438,540.736,538.768,0.0
49446.0,STARLINK-3099,PAYLOAD,2024-03-03 06:51:58,15.08840623,0.0001428,53.2164,274.9581,75.0569,285.0582,2.372e-05,9e-07,0.0,0 STARLINK-3099,1 49446U 21104AQ  24063.28609238  .00000090  00000-0  23720-4 0  9995,2 49446  53.2164 274.9581 0001428  75.0569 285.0582 15.08840623127741,6917.878,95.438,540.731,538.756,0.0
49446.0,STARLINK-3099,PAYLOAD,2024-03-03 21:10:26,15.08844501,0.0001419,53.2166,272.2868,86.2912,273.8242,0.00010102,1.32e-05,0.0,0 STARLINK-3099,1 49446U 21104AQ  24063.88224967  .00001320  00000-0  10102-3 0  9999,2 49446  53.2166 272.2868 0001419  86.2912 273.8242 15.08844501127835,6917.867,95.437,540.713,538.75,0.0
49446.0,STARLINK-3099,PAYLOAD,2024-03-03 22:45:49,15.08846565,0.0001455,53.2169,271.9902,93.4891,266.6267,0.00012018,1.626e-05,0.0,0 STARLINK-3099,1 49446U 21104AQ  24063.94848766  .00001626  00000-0  12018-3 0  9992,2 49446  53.2169 271.9902 0001455  93.4891 266.6267 15.08846565128918,6917.86,95.437,540.732,538.719,0.0
49446.0,STARLINK-3099,PAYLOAD,2024-03-04 13:04:17,15.08843114,0.0001378,53.2165,269.3147,91.1214,268.9936,0.00013367,1.84e-05,0.0,0 STARLINK-3099,1 49446U 21104AQ  24064.54464746  .00001840  00000-0  13367-3 0  9997,2 49446  53.2165 269.3147 0001378  91.1214 268.9936 15.08843114127930,6917.871,95.437,540.689,538.783,0.0
49446.0,STARLINK-3099,PAYLOAD,2024-03-04 21:01:12,15.08848877,0.0001379,53.2164,267.8279,90.7114,269.4036,0.00018062,2.588e-05,0.0,0 STARLINK-3099,1 49446U 21104AQ  24064.87584262  .00002588  00000-0  18062-3 0  9996,2 49446  53.2164 267.8279 0001379  90.7114 269.4036 15.08848877127986,6917.853,95.437,540.672,538.764,0.0
49446.0,STARLINK-3099,PAYLOAD,2024-03-05 20:52:01,15.08835213,0.0001372,53.2169,263.3632,62.3019,297.8112,-2.4576e-05,-6.79e-06,0.0,0 STARLINK-3099,1 49446U 21104AQ  24065.86945835 -.00000679  00000-0 -24576-4 0  9992,2 49446  53.2169 263.3632 0001372  62.3019 297.8112 15.08835213129204,6917.895,95.438,540.709,538.811,0.0
49446.0,STARLINK-3099,PAYLOAD,2024-03-05 22:27:24,15.08839733,0.0001366,53.2161,263.0692,93.0933,267.0215,-2.1932e-06,-3.23e-06,0.0,0 STARLINK-3099,1 49446U 21104AQ  24065.93569470 -.00000323  00000-0 -21932-5 0  9997,2 49446  53.2161 263.0692 0001366  93.0933 267.0215 15.08839733129213,6917.881,95.438,540.691,538.801,0.0
49446.0,STARLINK-3099,PAYLOAD,2024-03-07 06:15:06,15.08845435,0.0001389,53.2165,257.1192,114.5864,245.5273,2.7068e-05,1.43e-06,0.0,0 STARLINK-3099,1 49446U 21104AQ  24067.26049125  .00000143  00000-0  27068-4 0  9998,2 49446  53.2165 257.1192 0001389 114.5864 245.5273 15.08845435128347,6917.864,95.437,540.69,538.768,0.0
49446.0,STARLINK-3099,PAYLOAD,2024-03-08 12:27:26,15.08843322,0.0001422,53.2174,251.4692,103.1022,257.0128,0.00014087,1.955e-05,0.0,0 STARLINK-3099,1 49446U 21104AQ  24068.51905702  .00001955  00000-0  14087-3 0  9997,2 49446  53.2174 251.4692 0001422 103.1022 257.0128 15.08843322129607,6917.87,95.437,540.719,538.752,0.0
49446.0,STARLINK-3099,PAYLOAD,2024-03-08 18:48:59,15.08843872,0.0001371,53.2162,250.2816,92.1213,267.9937,0.00016308,2.309e-05,0.0,0 STARLINK-3099,1 49446U 21104AQ  24068.78401830  .00002309  00000-0  16308-3 0  9991,2 49446  53.2162 250.2816 0001371  92.1213 267.9937 15.08843872128574,6917.869,95.437,540.682,538.785,0.0
49446.0,STARLINK-3099,PAYLOAD,2024-03-09 12:18:13,15.08840855,0.0001329,53.216,247.0106,89.9267,270.1878,9.3519e-05,1.201e-05,0.0,0 STARLINK-3099,1 49446U 21104AQ  24069.51265918  .00001201  00000-0  93519-4 0  9998,2 49446  53.2160 247.0106 0001329  89.9267 270.1878 15.08840855129753,6917.878,95.438,540.662,538.823,0.0
49446.0,STARLINK-3099,PAYLOAD,2024-03-09 18:39:46,15.08835807,7.94e-05,53.2163,245.821,85.3671,274.7411,1.152e-05,-1.04e-06,0.0,0 STARLINK-3099,1 49446U 21104AQ  24069.77762114 -.00000104  00000-0  11520-4 0  9990,2 49446  53.2163 245.8210 0000794  85.3671 274.7411 15.08835807128722,6917.893,95.438,540.307,539.209,0.0
49446.0,STARLINK-3099,PAYLOAD,2024-03-10 20:05:58,15.08825819,8.76e-05,53.2144,241.0638,79.5103,280.5987,-0.00020055,-3.477e-05,0.0,0 STARLINK-3099,1 49446U 21104AQ  24070.83748310 -.00003477  00000-0 -20055-3 0  9990,2 49446  53.2144 241.0638 0000876  79.5103 280.5987 15.08825819129950,6917.924,95.438,540.395,539.183,0.0
49446.0,STARLINK-3099,PAYLOAD,2024-03-11 04:02:54,15.08825665,4.84e-05,53.2139,239.5763,65.8507,294.2535,-6.9309e-05,-1.39e-05,0.0,0 STARLINK-3099,1 49446U 21104AQ  24071.16868158 -.00001390  00000-0 -69309-4 0  9998,2 49446  53.2139 239.5763 0000484  65.8507 294.2535 15.08825665128933,6917.924,95.438,540.124,539.454,0.0
49446.0,STARLINK-3099,PAYLOAD,2024-03-11 19:56:44,15.08837376,0.000224,53.2134,236.6006,285.3734,74.7011,0.00016216,2.293e-05,0.0,0 STARLINK-3099,1 49446U 21104AQ  24071.83106805  .00002293  00000-0  16216-3 0  9995,2 49446  53.2134 236.6006 0002240 285.3734  74.7011 15.08837376130103,6917.888,95.438,541.303,538.204,0.0
49446.0,STARLINK-3099,PAYLOAD,2024-03-11 21:32:07,15.08837503,0.0002223,53.2128,236.304,283.8746,76.1998,0.00016402,2.323e-05,0.0,0 STARLINK-3099,1 49446U 21104AQ  24071.89730796  .00002323  00000-0  16402-3 0  9994,2 49446  53.2128 236.3040 0002223 283.8746  76.1998 15.08837503129041,6917.888,95.438,541.291,538.215,0.0
